{"type": "FeatureCollection", "features": [ {"type": "Feature", "properties": {"norad_id": 35593, "name": "COSMOS 2251 DEB", "group": "cosmos-2251-debris", "lat": 20.16278005030523, "lon": -61.351910940864556, "alt_km": 794.2885987436266, "timestamp": "2025-12-10T09:57:45.094186+00:00", "meta": {"OBJECT_NAME": "COSMOS 2251 DEB", "OBJECT_ID": "1993-036AML", "EPOCH": "2025-12-09T13:39:16.918848", "MEAN_MOTION": 14.25575866, "ECCENTRICITY": 0.0105392, "INCLINATION": 74.0855, "RA_OF_ASC_NODE": 294.1568, "ARG_OF_PERICENTER": 301.2873, "MEAN_ANOMALY": 57.7986, "EPHEMERIS_TYPE": 0, "CLASSIFICATION_TYPE": "U", "NORAD_CAT_ID": 35593, "ELEMENT_SET_NO": 999, "REV_AT_EPOCH": 85020, "BSTAR": 0.0020176, "MEAN_MOTION_DOT": 5.039e-05, "MEAN_MOTION_DDOT": 0}, "tle": {"line1": "1 35593U 93036AML 25343.56894582  .00005039  00000+0  20176-2 0  9994", "line2": "2 35593  74.0855 294.1568 0105392 301.2873  57.7986 14.25575866850201"}}, "geometry": {"type": "Point", "coordinates": [-61.351910940864556, 20.16278005030523]}}, {"type": "Feature", "properties": {"norad_id": 35594, "name": "COSMOS 2251 DEB", "group": "cosmos-2251-debris", "lat": 17.585354991955647, "lon": -74.04445817567942, "alt_km": 594.4815912135846, "timestamp": "2025-12-10T09:57:45.094196+00:00", "meta": {"OBJECT_NAME": "COSMOS 2251 DEB", "OBJECT_ID": "1993-036AMM", "EPOCH": "2025-12-09T02:34:25.968000", "MEAN_MOTION": 14.87749225, "ECCENTRICITY": 0.00305448, "INCLINATION": 73.8074, "RA_OF_ASC_NODE": 113.8828, "ARG_OF_PERICENTER": 225.3103, "MEAN_ANOMALY": 134.5588, "EPHEMERIS_TYPE": 0, "CLASSIFICATION_TYPE": "U", "NORAD_CAT_ID": 35594, "ELEMENT_SET_NO": 999, "REV_AT_EPOCH": 88131, "BSTAR": 0.0022507147, "MEAN_MOTION_DOT": 0.00020735, "MEAN_MOTION_DDOT": 0}, "tle": {"line1": "1 35594U 93036AMM 25343.10724500  .00020735  00000+0  22507-2 0  9997", "line2": "2 35594  73.8074 113.8828 0030544 225.3103 134.5588 14.87749225881314"}}, "geometry": {"type": "Point", "coordinates": [-74.04445817567942, 17.585354991955647]}}, {"type": "Feature", "properties": {"norad_id": 35602, "name": "COSMOS 2251 DEB", "group": "cosmos-2251-debris", "lat": -54.659627424662936, "lon": 31.0922204051032, "alt_km": 408.3056929841523, "timestamp": "2025-12-10T09:57:45.094206+00:00", "meta": {"OBJECT_NAME": "COSMOS 2251 DEB", "OBJECT_ID": "1993-036AMV", "EPOCH": "2025-12-09T22:14:58.154208", "MEAN_MOTION": 15.34923103, "ECCENTRICITY": 0.0090186, "INCLINATION": 73.9938, "RA_OF_ASC_NODE": 188.2606, "ARG_OF_PERICENTER": 254.6822, "MEAN_ANOMALY": 167.9594, "EPHEMERIS_TYPE": 0, "CLASSIFICATION_TYPE": "U", "NORAD_CAT_ID": 35602, "ELEMENT_SET_NO": 999, "REV_AT_EPOCH": 90048, "BSTAR": 0.00062605, "MEAN_MOTION_DOT": 0.00024271, "MEAN_MOTION_DDOT": 0}, "tle": {"line1": "1 35602U 93036AMV 25343.92706197  .00024271  00000+0  62605-3 0  9992", "line2": "2 35602  73.9938 188.2606 0090186 254.6822 167.9594 15.34923103900484"}}, "geometry": {"type": "Point", "coordinates": [31.0922204051032, -54.659627424662936]}}, {"type": "Feature", "properties": {"norad_id": 35605, "name": "COSMOS 2251 DEB", "group": "cosmos-2251-debris", "lat": -57.363396426875624, "lon": -45.21479701121397, "alt_km": 457.0573277997646, "timestamp": "2025-12-10T09:57:45.094216+00:00", "meta": {"OBJECT_NAME": "COSMOS 2251 DEB", "OBJECT_ID": "1993-036AMY", "EPOCH": "2025-12-08T17:29:07.135584", "MEAN_MOTION": 15.31836492, "ECCENTRICITY": 0.00282066, "INCLINATION": 73.8723, "RA_OF_ASC_NODE": 345.2823, "ARG_OF_PERICENTER": 280.9051, "MEAN_ANOMALY": 78.8978, "EPHEMERIS_TYPE": 0, "CLASSIFICATION_TYPE": "U", "NORAD_CAT_ID": 35605, "ELEMENT_SET_NO": 999, "REV_AT_EPOCH": 65910, "BSTAR": 0.0070125726, "MEAN_MOTION_DOT": 0.002247, "MEAN_MOTION_DDOT": 0}, "tle": {"line1": "1 35605U 93036AMY 25342.72855481  .00224700  00000+0  70126-2 0  9998", "line2": "2 35605  73.8723 345.2823 0028206 280.9051  78.8978 15.31836492659101"}}, "geometry": {"type": "Point", "coordinates": [-45.21479701121397, -57.363396426875624]}}, {"type": "Feature", "properties": {"norad_id": 35606, "name": "COSMOS 2251 DEB", "group": "cosmos-2251-debris", "lat": 40.28159200803767, "lon": -179.7495817734507, "alt_km": 1043.8205064443773, "timestamp": "2025-12-10T09:57:45.094227+00:00", "meta": {"OBJECT_NAME": "COSMOS 2251 DEB", "OBJECT_ID": "1993-036AMZ", "EPOCH": "2025-12-09T08:10:26.094720", "MEAN_MOTION": 13.41205491, "ECCENTRICITY": 0.04577322, "INCLINATION": 73.8107, "RA_OF_ASC_NODE": 16.2149, "ARG_OF_PERICENTER": 222.4362, "MEAN_ANOMALY": 134.0496, "EPHEMERIS_TYPE": 0, "CLASSIFICATION_TYPE": "U", "NORAD_CAT_ID": 35606, "ELEMENT_SET_NO": 999, "REV_AT_EPOCH": 60994, "BSTAR": 0.0014727579, "MEAN_MOTION_DOT": 1.492e-05, "MEAN_MOTION_DDOT": 0}, "tle": {"line1": "1 35606U 93036AMZ 25343.34057980  .00001492  00000+0  14728-2 0  9993", "line2": "2 35606  73.8107  16.2149 0457732 222.4362 134.0496 13.41205491609945"}}, "geometry": {"type": "Point", "coordinates": [-179.7495817734507, 40.28159200803767]}}, {"type": "Feature", "properties": {"norad_id": 35611, "name": "COSMOS 2251 DEB", "group": "cosmos-2251-debris", "lat": -62.26754632256025, "lon": 36.86253705405775, "alt_km": 644.0579456597025, "timestamp": "2025-12-10T09:57:45.094237+00:00", "meta": {"OBJECT_NAME": "COSMOS 2251 DEB", "OBJECT_ID": "1993-036ANE", "EPOCH": "2025-12-09T23:03:41.124096", "MEAN_MOTION": 14.727217, "ECCENTRICITY": 0.0021818, "INCLINATION": 74.0195, "RA_OF_ASC_NODE": 184.7172, "ARG_OF_PERICENTER": 258.0606, "MEAN_ANOMALY": 101.812, "EPHEMERIS_TYPE": 0, "CLASSIFICATION_TYPE": "U", "NORAD_CAT_ID": 35611, "ELEMENT_SET_NO": 999, "REV_AT_EPOCH": 87249, "BSTAR": 0.0031287, "MEAN_MOTION_DOT": 0.00020072, "MEAN_MOTION_DDOT": 0}, "tle": {"line1": "1 35611U 93036ANE 25343.96089264  .00020072  00000+0  31287-2 0  9991", "line2": "2 35611  74.0195 184.7172 0021818 258.0606 101.8120 14.72721700872495"}}, "geometry": {"type": "Point", "coordinates": [36.86253705405775, -62.26754632256025]}}, {"type": "Feature", "properties": {"norad_id": 35614, "name": "COSMOS 2251 DEB", "group": "cosmos-2251-debris", "lat": 51.52494968861962, "lon": -6.80389847037878, "alt_km": 701.521409924364, "timestamp": "2025-12-10T09:57:45.094247+00:00", "meta": {"OBJECT_NAME": "COSMOS 2251 DEB", "OBJECT_ID": "1993-036ANH", "EPOCH": "2025-12-08T16:47:37.057344", "MEAN_MOTION": 14.66956711, "ECCENTRICITY": 0.00760294, "INCLINATION": 73.959, "RA_OF_ASC_NODE": 335.2957, "ARG_OF_PERICENTER": 190.7656, "MEAN_ANOMALY": 169.189, "EPHEMERIS_TYPE": 0, "CLASSIFICATION_TYPE": "U", "NORAD_CAT_ID": 35614, "ELEMENT_SET_NO": 999, "REV_AT_EPOCH": 87670, "BSTAR": 0.0013359828, "MEAN_MOTION_DOT": 7.786e-05, "MEAN_MOTION_DDOT": 0}, "tle": {"line1": "1 35614U 93036ANH 25342.69973446  .00007786  00000+0  13360-2 0  9996", "line2": "2 35614  73.9590 335.2957 0076029 190.7656 169.1890 14.66956711876704"}}, "geometry": {"type": "Point", "coordinates": [-6.80389847037878, 51.52494968861962]}}, {"type": "Feature", "properties": {"norad_id": 35645, "name": "COSMOS 2251 DEB", "group": "cosmos-2251-debris", "lat": -43.00083538303602, "lon": 76.52866543382443, "alt_km": 725.2134896195339, "timestamp": "2025-12-10T09:57:45.094257+00:00", "meta": {"OBJECT_NAME": "COSMOS 2251 DEB", "OBJECT_ID": "1993-036ANL", "EPOCH": "2025-12-10T00:12:18.796032", "MEAN_MOTION": 14.45512802, "ECCENTRICITY": 0.0069548, "INCLINATION": 73.9645, "RA_OF_ASC_NODE": 92.847, "ARG_OF_PERICENTER": 250.9584, "MEAN_ANOMALY": 108.4031, "EPHEMERIS_TYPE": 0, "CLASSIFICATION_TYPE": "U", "NORAD_CAT_ID": 35645, "ELEMENT_SET_NO": 999, "REV_AT_EPOCH": 86732, "BSTAR": 0.0033862, "MEAN_MOTION_DOT": 0.00012297, "MEAN_MOTION_DDOT": 0}, "tle": {"line1": "1 35645U 93036ANL 25344.00855088  .00012297  00000+0  33862-2 0  9990", "line2": "2 35645  73.9645  92.8470 0069548 250.9584 108.4031 14.45512802867329"}}, "geometry": {"type": "Point", "coordinates": [76.52866543382443, -43.00083538303602]}}, {"type": "Feature", "properties": {"norad_id": 35646, "name": "COSMOS 2251 DEB", "group": "cosmos-2251-debris", "lat": 28.285574885957903, "lon": 68.67462799399122, "alt_km": 1362.5705206870398, "timestamp": "2025-12-10T09:57:45.094267+00:00", "meta": {"OBJECT_NAME": "COSMOS 2251 DEB", "OBJECT_ID": "1993-036ANM", "EPOCH": "2025-12-09T21:53:18.178080", "MEAN_MOTION": 13.40813356, "ECCENTRICITY": 0.045718, "INCLINATION": 73.8723, "RA_OF_ASC_NODE": 60.5155, "ARG_OF_PERICENTER": 171.162, "MEAN_ANOMALY": 314.4058, "EPHEMERIS_TYPE": 0, "CLASSIFICATION_TYPE": "U", "NORAD_CAT_ID": 35646, "ELEMENT_SET_NO": 999, "REV_AT_EPOCH": 81820, "BSTAR": 0.0013447, "MEAN_MOTION_DOT": 1.351e-05, "MEAN_MOTION_DDOT": 0}, "tle": {"line1": "1 35646U 93036ANM 25343.91201595  .00001351  00000+0  13447-2 0  9994", "line2": "2 35646  73.8723  60.5155 0457180 171.1620 314.4058 13.40813356818209"}}, "geometry": {"type": "Point", "coordinates": [68.67462799399122, 28.285574885957903]}}, {"type": "Feature", "properties": {"norad_id": 35647, "name": "COSMOS 2251 DEB", "group": "cosmos-2251-debris", "lat": 39.59631323615075, "lon": -47.39934936278961, "alt_km": 711.0580158876473, "timestamp": "2025-12-10T09:57:45.094277+00:00", "meta": {"OBJECT_NAME": "COSMOS 2251 DEB", "OBJECT_ID": "1993-036ANN", "EPOCH": "2025-12-06T04:19:05.390400", "MEAN_MOTION": 14.4357388, "ECCENTRICITY": 0.0045144, "INCLINATION": 74.0229, "RA_OF_ASC_NODE": 306.7667, "ARG_OF_PERICENTER": 47.5691, "MEAN_ANOMALY": 312.927, "EPHEMERIS_TYPE": 0, "CLASSIFICATION_TYPE": "U", "NORAD_CAT_ID": 35647, "ELEMENT_SET_NO": 999, "REV_AT_EPOCH": 67569, "BSTAR": 0.0014529978, "MEAN_MOTION_DOT": 4.961e-05, "MEAN_MOTION_DDOT": 0}, "tle": {"line1": "1 35647U 93036ANN 25340.17992350  .00004961  00000+0  14530-2 0  9990", "line2": "2 35647  74.0229 306.7667 0045144  47.5691 312.9270 14.43573880675696"}}, "geometry": {"type": "Point", "coordinates": [-47.39934936278961, 39.59631323615075]}}]}